[{"col1":"1 13601U 23001EAE 25071.61670678  .00030938  00000+0  12818-2 0  9996"},{"col1":"2 13601 045.0000 000.0000 0000002 108.8875 287.4296 02.19630568415189"},{"col1":"500"},{"col1":"3095.93542"},{"col1":"-3595.93542"}]
